IRIDIUM 126             
1 42809U 17039G   25200.84118815  .00000213  00000+0  69170-4 0  9990
2 42809  86.4002 132.5899 0002356  79.3206 280.8255 14.34216652422311
IRIDIUM 124             
1 42810U 17039H   25200.88835612  .00000260  00000+0  71223-4 0  9991
2 42810  86.4457  69.2919 0002011  88.8145 271.3286 14.43278872427182
IRIDIUM 128             
1 42811U 17039J   25200.90169772  .00000031  00000+0  39308-5 0  9997
2 42811  86.4013 164.0388 0001957  89.9795 270.1625 14.34217778422352
IRIDIUM 121             
1 42812U 17039K   25200.86021009  .00000193  00000+0  61859-4 0  9997
2 42812  86.4003 132.6071 0002230  86.3637 273.7814 14.34222463422191
IRIDIUM 133             
1 42955U 17061A   25200.93340981  .00000216  00000+0  70106-4 0  9992
2 42955  86.4014 164.1349 0002247  85.3788 274.7664 14.34219129407151
IRIDIUM 100             
1 42956U 17061B   25200.64799395  .00000047  00000+0  95791-5 0  9998
2 42956  86.4012 164.1806 0002124  82.4217 277.7220 14.34217365407114
IRIDIUM 122             
1 42957U 17061C   25200.89535517  .00000081  00000+0  21892-4 0  9998
2 42957  86.4013 164.0766 0002235  83.7673 276.3777 14.34218181407156
IRIDIUM 129             
1 42958U 17061D   25200.64165527  .00000125  00000+0  37419-4 0  9993
2 42958  86.4012 164.2457 0002797  85.6379 274.5136 14.34214536407139
